STARLINK-30497          
1 58011U 23153W   25099.39606006  .00001129  00000+0  98667-4 0  9996
2 58011  43.0031  85.7292 0001123 262.2981  97.7734 15.02536739 84581
STARLINK-30525          
1 58012U 23153X   25099.65198332 -.00000876  00000+0 -49747-4 0  9999
2 58012  43.0055  84.2042 0001258 252.7184 107.3521 15.02551129 84620
STARLINK-30514          
1 58028U 23156A   25099.54624225 -.00010059  00000+0 -24186-3 0  9995
2 58028  53.1615 191.4014 0001355  87.6438 272.4722 15.39614097 85145
STARLINK-30518          
1 58029U 23156B   25099.53233530 -.00001638  00000+0 -30975-4 0  9997
2 58029  53.1612 191.3173 0001550  98.9469 261.1711 15.39603920 85140
STARLINK-30549          
1 58030U 23156C   25099.47564326  .00000392  00000+0  25353-4 0  9990
2 58030  53.1593 190.7759 0001142  95.8283 264.2848 15.30189261 85097
STARLINK-30556          
1 58031U 23156D   25099.55876618  .00010017  00000+0  35004-3 0  9998
2 58031  53.1601 200.4017 0001351  87.8972 272.2183 15.30185685 85000
STARLINK-30561          
1 58032U 23156E   25099.93917047  .00000682  00000+0  35162-4 0  9996
2 58032  53.1601 188.6955 0001161 106.1288 253.9841 15.30196256 85219
STARLINK-30562          
1 58033U 23156F   25099.75553704  .00001617  00000+0  13231-3 0  9994
2 58033  53.1601 262.6340 0001204  92.9127 267.2000 15.04924996 84140
STARLINK-30565          
1 58034U 23156G   25099.94128467  .00000937  00000+0  43777-4 0  9993
2 58034  53.1606 188.7137 0001346  86.0621 274.0534 15.30192564 85212
STARLINK-30438          
1 58035U 23156H   25099.56937134 -.00002982  00000+0 -64579-4 0  9998
2 58035  53.1615 190.8292 0001226  99.0688 261.0456 15.39632803 85104
STARLINK-30437          
1 58036U 23156J   25099.57402418 -.00001815  00000+0 -35404-4 0  9991
2 58036  53.1617 190.8548 0001359  94.7972 265.3188 15.39610621 85031
STARLINK-30533          
1 58037U 23156K   25099.74802093  .00005919  00000+0  43238-3 0  9994
2 58037  53.1598 262.5774 0001287  90.4756 269.6381 15.04932569 84144
STARLINK-30560          
1 58038U 23156L   25099.94103908  .00003850  00000+0  10613-3 0  9999
2 58038  53.1594 189.5877 0001034  96.1689 263.9434 15.39632403 85151
STARLINK-30559          
1 58039U 23156M   25099.76198239  .00006205  00000+0  45230-3 0  9991
2 58039  53.1588 262.6734 0001078  72.2533 287.8574 15.04939260 84142
STARLINK-30555          
1 58040U 23156N   25099.69234974  .00001920  00000+0  15346-3 0  9996
2 58040  53.1595 262.9569 0001147  86.7402 273.3718 15.04926159 84135
STARLINK-30542          
1 58041U 23156P   25099.56094638  .00000337  00000+0  23521-4 0  9990
2 58041  53.1587 190.2323 0001303  85.9532 274.1618 15.30190595 85154
STARLINK-30563          
1 58042U 23156Q   25099.53685154  .00000215  00000+0  15366-4 0  9990
2 58042  53.1615 190.4701 0001222 113.6382 246.4751 15.39611140 85154
STARLINK-30564          
1 58043U 23156R   25099.94233953 -.00013702  00000+0 -45147-3 0  9998
2 58043  53.1573 188.7152 0001210  76.5036 283.6099 15.30189486 85217
STARLINK-30547          
1 58044U 23156S   25099.71797997  .00000287  00000+0  39443-4 0  9992
2 58044  53.1598 262.3664 0001279  92.2963 267.8174 15.04920768 84147
STARLINK-30550          
1 58045U 23156T   25099.33005215  .00000383  00000+0  25068-4 0  9991
2 58045  53.1608 114.4244 0001163  88.4269 271.6865 15.30194461 86187
STARLINK-30548          
1 58046U 23156U   25099.75124258  .00000937  00000+0  84805-4 0  9996
2 58046  53.1587 262.6088 0001352  81.8318 278.2825 15.04926685 84097
STARLINK-30529          
1 58047U 23156V   25099.74158797  .00008908  00000+0  64046-3 0  9991
2 58047  53.1600 262.5433 0001408  85.1330 274.9821 15.04948837 84092
STARLINK-30554          
1 58048U 23156W   25099.73836616  .00000090  00000+0  25628-4 0  9992
2 58048  53.1605 262.5345 0001454  95.3544 264.7611 15.04930163 84098
STARLINK-30568          
1 58051U 23158A   25099.54313425  .00002060  00000+0  16748-3 0  9996
2 58051  43.0029  46.2796 0001202 263.0477  97.0228 15.02541110 83095
STARLINK-30575          
1 58052U 23158B   25099.54979377  .00002005  00000+0  16345-3 0  9993
2 58052  43.0013  46.3287 0001111 279.5099  80.5618 15.02539025 83267
STARLINK-30577          
1 58053U 23158C   25099.53979601  .00000888  00000+0  80790-4 0  9996
2 58053  43.0036  46.2370 0001134 272.2723  87.7990 15.02541871 83257
STARLINK-30566          
1 58054U 23158D   25099.33370098  .00066405  00000+0  48828-2 0  9991
2 58054  43.0016  47.2888 0001825 247.7238 112.3410 15.02547996 83230
STARLINK-30544          
1 58055U 23158E   25099.84888337  .00001047  00000+0  92589-4 0  9994
2 58055  43.0043  44.2746 0001330 269.3010  90.7680 15.02541056 83262
STARLINK-30553          
1 58056U 23158F   25099.12761419  .00001502  00000+0  12624-3 0  9994
2 58056  43.0018  48.3206 0000918 270.5417  89.5320 15.02543739 83208
STARLINK-30541          
1 58057U 23158G   25099.52981544  .00001824  00000+0  15002-3 0  9992
2 58057  43.0030  46.1804 0000914 279.9239  80.1500 15.02538653 83266
STARLINK-30573          
1 58058U 23158H   25099.85554345  .00004796  00000+0  36999-3 0  9993
2 58058  43.0041  44.3265 0001726 270.1172  89.9473 15.02524003 83317
STARLINK-30582          
1 58059U 23158J   25099.24725084 -.00001531  00000+0 -98278-4 0  9992
2 58059  43.0040  47.5006 0001347 258.7510 101.3181 15.02551363 83226
STARLINK-30558          
1 58060U 23158K   25099.22073466  .00001154  00000+0  10050-3 0  9992
2 58060  43.0038  48.1467 0001135 265.6313  94.4399 15.02538724 83214
STARLINK-30579          
1 58061U 23158L   25099.51042959  .00003227  00000+0  25369-3 0  9990
2 58061  43.0046  20.7236 0000946 257.7301 102.3435 15.02556133 83542
STARLINK-30588          
1 58062U 23158M   25099.83889931  .00001854  00000+0  15231-3 0  9996
2 58062  43.0039  44.1954 0001511 259.6023 100.4649 15.02528022 83310
STARLINK-30585          
1 58063U 23158N   25099.23061108  .00004009  00000+0  31165-3 0  9998
2 58063  43.0040  47.3781 0000840 246.0804 113.9951 15.02540744 83227
STARLINK-30587          
1 58064U 23158P   25099.84222851  .00000279  00000+0  35699-4 0  9992
2 58064  43.0031  44.2241 0000940 270.9405  89.1330 15.02534982 83311
STARLINK-30576          
1 58065U 23158Q   25099.53647666  .00005345  00000+0  41042-3 0  9991
2 58065  43.0038  46.2358 0001156 273.1076  86.9634 15.02541154 83152
STARLINK-30571          
1 58066U 23158R   25099.22395339  .00006407  00000+0  48885-3 0  9997
2 58066  43.0030  47.3262 0001070 274.1247  85.9473 15.02541969 83229
STARLINK-30567          
1 58067U 23158S   25099.55090258  .00000460  00000+0  49083-4 0  9991
2 58067  43.0029  46.3211 0000888 265.1346  94.9395 15.02535786 83264
STARLINK-30569          
1 58068U 23158T   25099.23726716 -.00002990  00000+0 -20632-3 0  9992
2 58068  43.0014  47.4210 0000912 266.0073  94.0665 15.02539544 83228
STARLINK-30480          
1 58069U 23158U   25099.90810590 -.00002374  00000+0 -76750-4 0  9990
2 58069  43.0096 329.8347 0004570 244.3060 115.7320 15.27559733 84191
STARLINK-30532          
1 58070U 23158V   25099.23392906  .00002423  00000+0  19424-3 0  9991
2 58070  43.0044  47.3979 0001205 270.7809  89.2895 15.02558605 83220
STARLINK-30513          
1 58071U 23158W   25099.27806313  .00076072  00000+0  12798-2 0  9995
2 58071  42.9940 201.8289 0001834 267.6787  92.3863 15.50800298 85619
STARLINK-30506          
1 58072U 23158X   25099.22727269  .00000937  00000+0  84399-4 0  9998
2 58072  43.0030  47.3497 0000928 274.0832  85.9904 15.02541660 83223
STARLINK-30604          
1 58075U 23160A   25099.70014034  .00001249  00000+0  10758-3 0  9990
2 58075  42.9963  95.3681 0000729 101.9611 258.1313 15.02517825 82671
STARLINK-30500          
1 58076U 23160B   25099.70998171  .00010368  00000+0  78052-3 0  9997
2 58076  43.0009  94.5780 0001053 273.6266  86.4456 15.02582468 82686
STARLINK-30613          
1 58077U 23160C   25099.49404888 -.00001544  00000+0 -99194-4 0  9990
2 58077  43.0026  96.4030 0000818 276.6835  83.3915 15.02557803 82285
STARLINK-30597          
1 58078U 23160D   25099.70346282  .00001368  00000+0  11629-3 0  9996
2 58078  43.0036  95.3775 0001270 269.8442  90.2255 15.02543925 82679
STARLINK-30598          
1 58079U 23160E   25099.69014793  .00001178  00000+0  10224-3 0  9993
2 58079  43.0022  95.2926 0001292 270.6456  89.4238 15.02539987 82675
STARLINK-30603          
1 58080U 23160F   25099.68681621  .00002663  00000+0  21216-3 0  9997
2 58080  43.0033  95.2676 0001164 278.0466  82.0245 15.02532988 82673
STARLINK-30602          
1 58081U 23160G   25099.45408584  .00001642  00000+0  13661-3 0  9999
2 58081  43.0029  96.0898 0001245 275.6476  84.4224 15.02528700 82645
STARLINK-30610          
1 58082U 23160H   25099.68348186 -.00001736  00000+0 -11347-3 0  9991
2 58082  43.0051  95.2430 0001491 265.8865  94.1807 15.02535463 82672
STARLINK-30551          
1 58083U 23160J   25099.68015697  .00001324  00000+0  11303-3 0  9993
2 58083  43.0026  95.2164 0001044 278.6540  81.4184 15.02538203 82677
STARLINK-30586          
1 58084U 23160K   25099.67683054  .00000655  00000+0  63522-4 0  9998
2 58084  43.0025  95.1921 0000792 278.5628  81.5124 15.02535109 82679
STARLINK-30609          
1 58085U 23160L   25099.67349940  .00010941  00000+0  82423-3 0  9991
2 58085  43.0034  95.1673 0001075 268.5785  91.4934 15.02511836 82672
STARLINK-30583          
1 58086U 23160M   25099.27130278  .00001277  00000+0  10957-3 0  9995
2 58086  43.0028  97.3092 0001090 272.3635  87.7083 15.02539469 82618
STARLINK-30557          
1 58087U 23160N   25099.46962429  .00005818  00000+0  44524-3 0  9990
2 58087  43.0019  96.2130 0001134 272.4940  87.5772 15.02552256 82644
STARLINK-30591          
1 58088U 23160P   25099.46408085  .00000760  00000+0  71361-4 0  9995
2 58088  43.0030  96.1755 0001138 267.0854  92.9858 15.02533800 82647
